start=new Date('2023-01-18T00:00:00.000Z').valueOf();
sats=[{"PERIOD":"95.440","MEAN_MOTION_DOT":"-0.00002749","SITE":"AFETR","ECCENTRICITY":"0.00004970","REV_AT_EPOCH":"1862","BSTAR":"-0.00015486000000","TLE_LINE1":"1 53910U 22119AA  23017.40954047 -.00002749  00000-0 -15486-3 0  9990","REF_FRAME":"TEME","NORAD_CAT_ID":"53910","ARG_OF_PERICENTER":"347.2574","OBJECT_NAME":"STARLINK-5056","ELEMENT_SET_NO":"999","MEAN_MOTION_DDOT":"0.0000000000000","RCS_SIZE":"LARGE","OBJECT_ID":"2022-119AA","MEAN_MOTION":"15.08805461","LAUNCH_DATE":"2022-09-24","PERIAPSIS":"539.507","CLASSIFICATION_TYPE":"U","OBJECT_TYPE":"PAYLOAD","FILE":"3753023","EPOCH":"2023-01-17T09:49:44.296608","DECAY_DATE":null,"COUNTRY_CODE":"US","TIME_SYSTEM":"UTC","APOAPSIS":"540.195","SEMIMAJOR_AXIS":"6917.986","CENTER_NAME":"EARTH","RA_OF_ASC_NODE":"64.5226","GP_ID":"223324661","TLE_LINE2":"2 53910  53.2220  64.5226 0000497 347.2574  12.8405 15.08805461 18626","MEAN_ANOMALY":"12.8405","EPHEMERIS_TYPE":"0","MEAN_ELEMENT_THEORY":"SGP4","INCLINATION":"53.2220"},{"REF_FRAME":"TEME","REV_AT_EPOCH":"1862","BSTAR":"-0.00004086800000","TLE_LINE1":"1 53911U 22119AB  23017.42058987 -.00000938  00000-0 -40868-4 0  9992","ECCENTRICITY":"0.00017370","SITE":"AFETR","MEAN_MOTION_DOT":"-0.00000938","PERIOD":"95.440","RCS_SIZE":"LARGE","OBJECT_ID":"2022-119AB","MEAN_MOTION_DDOT":"0.0000000000000","ELEMENT_SET_NO":"999","OBJECT_NAME":"STARLINK-5048","ARG_OF_PERICENTER":"108.8766","NORAD_CAT_ID":"53911","EPOCH":"2023-01-17T10:05:38.964768","FILE":"3753023","DECAY_DATE":null,"CLASSIFICATION_TYPE":"U","PERIAPSIS":"538.653","OBJECT_TYPE":"PAYLOAD","LAUNCH_DATE":"2022-09-24","MEAN_MOTION":"15.08804380","MEAN_ELEMENT_THEORY":"SGP4","INCLINATION":"53.2206","EPHEMERIS_TYPE":"0","MEAN_ANOMALY":"251.2415","RA_OF_ASC_NODE":"64.5840","GP_ID":"223325392","TLE_LINE2":"2 53911  53.2206  64.5840 0001737 108.8766 251.2415 15.08804380 18624","TIME_SYSTEM":"UTC","APOAPSIS":"541.056","CENTER_NAME":"EARTH","SEMIMAJOR_AXIS":"6917.989","COUNTRY_CODE":"US"},{"MEAN_MOTION":"15.08820983","LAUNCH_DATE":"2022-09-24","OBJECT_TYPE":"PAYLOAD","PERIAPSIS":"539.144","CLASSIFICATION_TYPE":"U","FILE":"3753023","EPOCH":"2023-01-17T04:05:10.942656","DECAY_DATE":null,"COUNTRY_CODE":"US","APOAPSIS":"540.463","CENTER_NAME":"EARTH","SEMIMAJOR_AXIS":"6917.939","TIME_SYSTEM":"UTC","GP_ID":"223325635","TLE_LINE2":"2 53912  53.2160  65.1684 0000954 113.4384 246.6708 15.08820983 18591","RA_OF_ASC_NODE":"65.1684","MEAN_ANOMALY":"246.6708","EPHEMERIS_TYPE":"0","INCLINATION":"53.2160","MEAN_ELEMENT_THEORY":"SGP4","PERIOD":"95.439","MEAN_MOTION_DOT":"0.00012503","ECCENTRICITY":"0.00009540","SITE":"AFETR","BSTAR":"0.00080265000000","TLE_LINE1":"1 53912U 22119AC  23017.17026554  .00012503  00000-0  80265-3 0  9993","REV_AT_EPOCH":"1859","REF_FRAME":"TEME","NORAD_CAT_ID":"53912","ARG_OF_PERICENTER":"113.4384","OBJECT_NAME":"STARLINK-5059","ELEMENT_SET_NO":"999","MEAN_MOTION_DDOT":"0.0000000000000","OBJECT_ID":"2022-119AC","RCS_SIZE":"LARGE"},{"REF_FRAME":"TEME","TLE_LINE1":"1 53913U 22119AD  23017.40216676 -.00002416  00000-0 -13384-3 0  9998","BSTAR":"-0.00013384000000","REV_AT_EPOCH":"1862","SITE":"AFETR","ECCENTRICITY":"0.00013330","MEAN_MOTION_DOT":"-0.00002416","PERIOD":"95.439","OBJECT_ID":"2022-119AD","RCS_SIZE":"LARGE","MEAN_MOTION_DDOT":"0.0000000000000","ELEMENT_SET_NO":"999","OBJECT_NAME":"STARLINK-5053","ARG_OF_PERICENTER":"102.2515","NORAD_CAT_ID":"53913","EPOCH":"2023-01-17T09:39:07.208064","FILE":"3753023","DECAY_DATE":null,"OBJECT_TYPE":"PAYLOAD","PERIAPSIS":"538.894","CLASSIFICATION_TYPE":"U","LAUNCH_DATE":"2022-09-24","MEAN_MOTION":"15.08816728","INCLINATION":"53.2158","MEAN_ELEMENT_THEORY":"SGP4","EPHEMERIS_TYPE":"0","MEAN_ANOMALY":"257.8626","GP_ID":"223326354","TLE_LINE2":"2 53913  53.2158  64.4716 0001333 102.2515 257.8626 15.08816728 18620","RA_OF_ASC_NODE":"64.4716","APOAPSIS":"540.739","SEMIMAJOR_AXIS":"6917.952","CENTER_NAME":"EARTH","TIME_SYSTEM":"UTC","COUNTRY_CODE":"US"},{"FILE":"3753069","DECAY_DATE":null,"EPOCH":"2023-01-17T12:44:34.828224","OBJECT_TYPE":"PAYLOAD","CLASSIFICATION_TYPE":"U","PERIAPSIS":"538.967","LAUNCH_DATE":"2022-09-24","MEAN_MOTION":"15.08820376","INCLINATION":"53.2159","MEAN_ELEMENT_THEORY":"SGP4","EPHEMERIS_TYPE":"0","MEAN_ANOMALY":"250.2784","TLE_LINE2":"2 53914  53.2159  63.8496 0001212 109.8339 250.2784 15.08820376 18225","GP_ID":"223353741","RA_OF_ASC_NODE":"63.8496","CENTER_NAME":"EARTH","APOAPSIS":"540.644","SEMIMAJOR_AXIS":"6917.940","TIME_SYSTEM":"UTC","COUNTRY_CODE":"US","REF_FRAME":"TEME","TLE_LINE1":"1 53914U 22119AE  23017.53095866 -.00001916  00000-0 -10239-3 0  9999","BSTAR":"-0.00010239000000","REV_AT_EPOCH":"1822","ECCENTRICITY":"0.00012120","SITE":"AFETR","MEAN_MOTION_DOT":"-0.00001916","PERIOD":"95.439","OBJECT_ID":"2022-119AE","RCS_SIZE":"LARGE","MEAN_MOTION_DDOT":"0.0000000000000","ELEMENT_SET_NO":"999","OBJECT_NAME":"STARLINK-5040","ARG_OF_PERICENTER":"109.8339","NORAD_CAT_ID":"53914"},{"INCLINATION":"53.2177","MEAN_ELEMENT_THEORY":"SGP4","EPHEMERIS_TYPE":"0","MEAN_ANOMALY":"264.4202","TLE_LINE2":"2 53915  53.2177  64.2444 0001422  95.6952 264.4202 15.08811838 18630","GP_ID":"223324904","RA_OF_ASC_NODE":"64.2444","APOAPSIS":"540.815","SEMIMAJOR_AXIS":"6917.966","CENTER_NAME":"EARTH","TIME_SYSTEM":"UTC","COUNTRY_CODE":"US","FILE":"3753023","EPOCH":"2023-01-17T11:30:24.972480","DECAY_DATE":null,"OBJECT_TYPE":"PAYLOAD","PERIAPSIS":"538.848","CLASSIFICATION_TYPE":"U","LAUNCH_DATE":"2022-09-24","MEAN_MOTION":"15.08811838","RCS_SIZE":"LARGE","OBJECT_ID":"2022-119AF","MEAN_MOTION_DDOT":"0.0000000000000","ELEMENT_SET_NO":"999","OBJECT_NAME":"STARLINK-5017","ARG_OF_PERICENTER":"95.6952","NORAD_CAT_ID":"53915","REF_FRAME":"TEME","BSTAR":"-0.00032901000000","TLE_LINE1":"1 53915U 22119AF  23017.47945570 -.00005516  00000-0 -32901-3 0  9999","REV_AT_EPOCH":"1863","ECCENTRICITY":"0.00014220","SITE":"AFETR","MEAN_MOTION_DOT":"-0.00005516","PERIOD":"95.439"},{"LAUNCH_DATE":"2022-09-24","MEAN_MOTION":"15.49873491","FILE":"3753286","DECAY_DATE":null,"EPOCH":"2023-01-17T22:00:00.999936","PERIAPSIS":"416.079","CLASSIFICATION_TYPE":"U","OBJECT_TYPE":"PAYLOAD","EPHEMERIS_TYPE":"0","MEAN_ELEMENT_THEORY":"SGP4","INCLINATION":"53.2145","TIME_SYSTEM":"UTC","APOAPSIS":"418.116","SEMIMAJOR_AXIS":"6795.233","CENTER_NAME":"EARTH","COUNTRY_CODE":"US","MEAN_ANOMALY":"308.8747","RA_OF_ASC_NODE":"45.5097","TLE_LINE2":"2 53916  53.2145  45.5097 0001499  92.5400 308.8747 15.49873491  1301","GP_ID":"223384963","REV_AT_EPOCH":"130","BSTAR":"0.00051112000000","TLE_LINE1":"1 53916U 22119AG  23017.91667824  .00028652  00000-0  51112-3 0  9991","REF_FRAME":"TEME","PERIOD":"92.911","SITE":"AFETR","ECCENTRICITY":"0.00014990","MEAN_MOTION_DOT":"0.00028652","ELEMENT_SET_NO":"999","OBJECT_NAME":"STARLINK-5051","OBJECT_ID":"2022-119AG","RCS_SIZE":"LARGE","MEAN_MOTION_DDOT":"0.0000000000000","NORAD_CAT_ID":"53916","ARG_OF_PERICENTER":"92.5400"},{"MEAN_MOTION_DOT":"-0.00001817","SITE":"AFETR","ECCENTRICITY":"0.00017590","PERIOD":"95.439","REF_FRAME":"TEME","REV_AT_EPOCH":"1862","BSTAR":"-0.00009614400000","TLE_LINE1":"1 53917U 22119AH  23017.40585395 -.00001817  00000-0 -96144-4 0  9999","ARG_OF_PERICENTER":"91.5616","NORAD_CAT_ID":"53917","MEAN_MOTION_DDOT":"0.0000000000000","RCS_SIZE":"LARGE","OBJECT_ID":"2022-119AH","OBJECT_NAME":"STARLINK-5036","ELEMENT_SET_NO":"999","CLASSIFICATION_TYPE":"U","PERIAPSIS":"538.616","OBJECT_TYPE":"PAYLOAD","FILE":"3753023","DECAY_DATE":null,"EPOCH":"2023-01-17T09:44:25.781280","MEAN_MOTION":"15.08811283","LAUNCH_DATE":"2022-09-24","RA_OF_ASC_NODE":"64.5003","GP_ID":"223325874","TLE_LINE2":"2 53917  53.2180  64.5003 0001759  91.5616 268.5578 15.08811283 18629","MEAN_ANOMALY":"268.5578","COUNTRY_CODE":"US","TIME_SYSTEM":"UTC","APOAPSIS":"541.050","CENTER_NAME":"EARTH","SEMIMAJOR_AXIS":"6917.968","MEAN_ELEMENT_THEORY":"SGP4","INCLINATION":"53.2180","EPHEMERIS_TYPE":"0"},{"APOAPSIS":"541.019","CENTER_NAME":"EARTH","SEMIMAJOR_AXIS":"6917.974","TIME_SYSTEM":"UTC","COUNTRY_CODE":"US","MEAN_ANOMALY":"271.9992","GP_ID":"223324662","TLE_LINE2":"2 53918  53.2165  63.8340 0001707  88.1195 271.9992 15.08809508 18643","RA_OF_ASC_NODE":"63.8340","EPHEMERIS_TYPE":"0","INCLINATION":"53.2165","MEAN_ELEMENT_THEORY":"SGP4","LAUNCH_DATE":"2022-09-24","MEAN_MOTION":"15.08809508","FILE":"3753023","DECAY_DATE":null,"EPOCH":"2023-01-17T12:39:17.242560","OBJECT_TYPE":"PAYLOAD","PERIAPSIS":"538.658","CLASSIFICATION_TYPE":"U","NORAD_CAT_ID":"53918","ARG_OF_PERICENTER":"88.1195","ELEMENT_SET_NO":"999","OBJECT_NAME":"STARLINK-5012","RCS_SIZE":"LARGE","OBJECT_ID":"2022-119AJ","MEAN_MOTION_DDOT":"0.0000000000000","PERIOD":"95.439","SITE":"AFETR","ECCENTRICITY":"0.00017070","MEAN_MOTION_DOT":"-0.00003672","TLE_LINE1":"1 53918U 22119AJ  23017.52728290 -.00003672  00000-0 -21290-3 0  9996","BSTAR":"-0.00021290000000","REV_AT_EPOCH":"1864","REF_FRAME":"TEME"},{"ARG_OF_PERICENTER":"69.3879","NORAD_CAT_ID":"53919","MEAN_MOTION_DDOT":"0.0000000000000","OBJECT_ID":"2022-119AK","RCS_SIZE":"LARGE","OBJECT_NAME":"STARLINK-5023","ELEMENT_SET_NO":"999","MEAN_MOTION_DOT":"-0.00004478","SITE":"AFETR","ECCENTRICITY":"0.00016890","PERIOD":"95.439","REF_FRAME":"TEME","REV_AT_EPOCH":"1822","BSTAR":"-0.00026353000000","TLE_LINE1":"1 53919U 22119AK  23017.52359852 -.00004478  00000-0 -26353-3 0  9991","RA_OF_ASC_NODE":"63.8096","GP_ID":"223353784","TLE_LINE2":"2 53919  53.2160  63.8096 0001689  69.3879 290.7294 15.08822032 18221","MEAN_ANOMALY":"290.7294","COUNTRY_CODE":"US","TIME_SYSTEM":"UTC","SEMIMAJOR_AXIS":"6917.935","APOAPSIS":"540.969","CENTER_NAME":"EARTH","MEAN_ELEMENT_THEORY":"SGP4","INCLINATION":"53.2160","EPHEMERIS_TYPE":"0","CLASSIFICATION_TYPE":"U","PERIAPSIS":"538.632","OBJECT_TYPE":"PAYLOAD","FILE":"3753071","EPOCH":"2023-01-17T12:33:58.912128","DECAY_DATE":null,"MEAN_MOTION":"15.08822032","LAUNCH_DATE":"2022-09-24"}];
